#dP2021 11 26  0  0  0.00000000      96 __u+U ITR00 EXT  IAC
## 2185 432000.00000000   900.00000000 59544 0.0000000000000
+  112   C06C07C08C09C10C11C12C13C14C16C19C20C21C22C23C24C25
+        C26C27C28C29C30C32C33C34C35C36C37C38C39C40C41C42C43
+        C44C45C46E01E02E03E04E05E07E08E09E11E12E13E14E15E18
+        E19E21E24E25E27E30E31E33E36G01G02G03G04G05G06G07G08
+        G09G10G12G13G14G15G16G17G18G19G20G21G22G23G24G25G26
+        G27G28G29G30G31G32R01R02R03R04R05R07R08R09R11R12R13
+        R14R15R16R17R18R19R20R21R22R24  0  0  0  0  0  0  0
++         8 10  9  8  9  7  8 10  7  9  8 10 10  9  8  8  7
++         9  9  9  8 10  7  9  7  7  9  9  9 10  9  9  9  9
++        10  8  9  9  9  7  8  9  7  8  8  9  9  8  7  9  6
++         8  9  9  9  8  9  9  9  7  7  6  7  6  7  7  8  7
++         7  7  8  6  7  8  8  7  8  8  7  8  8  8  7  8  8
++         8  7  8  7  8  7  9  7  8  6  9  8  8  8  7  7  9
++         9  6  9  8  7  9  7  7  9  8  0  0  0  0  0  0  0
%c M  cc GPS ccc cccc cccc cccc cccc ccccc ccccc ccccc ccccc
%c cc cc ccc ccc cccc cccc cccc cccc ccccc ccccc ccccc ccccc
%f  0.0000000  0.000000000  0.00000000000  0.000000000000000
%f  0.0000000  0.000000000  0.00000000000  0.000000000000000
%i    0    0    0    0      0      0      0      0         0
%i    0    0    0    0      0      0      0      0         0
/* IAC                                ULTRA-RAPID PREDICTION
/* S/V CLOCKS ARE ALIGNED TO GNSS TIME                      
/* G:C1WC2W R:C1PC2P E:C1XC5X C:C2IC6I J:C1CC2S             
/* PCV:IGS14_2178 OL/AL:FES2004  NONE     YN ORB:CoN CLK:CoN
*  2021 11 26  2 15  0.00000000
PC06  -3549.916420  39327.686075  15026.546226    542.303547
PC07  -9116.935861  25290.174487 -32489.037395    194.525492
PC08 -18593.528906  32365.418225  19480.347348   -737.323758
PC09   -104.308690  41595.298349   8578.197821   -297.445553
PC10    228.154340  26989.997114 -32096.495449     13.934158
PC11 -14600.059233 -14708.607997 -18637.335341    712.475487
PC12  -6785.291901 -26836.549680  -3594.560722    719.676134
PC13 -12810.785555  32671.857681  23271.279261    486.873754
PC14 -25305.018866 -11379.736431  -3215.034968    520.151873
PC16  -6757.177507  36767.046716  19853.320468   -708.488809
PC19  26737.085046   4950.295685  -6234.565954    930.535913
PC20  20858.564656  15191.146204  10603.170449   -791.469072
PC21  -2106.708222 -16936.927802 -22073.182895   -940.165870
PC22  17327.522877  -8554.507273 -20132.884601   -972.251727
PC23 -21495.819443  17786.102460    174.872972   -963.857152
PC24  -9647.501516 -13109.428233  22660.078464   -957.310050
PC25 -22479.865309   4683.326063  15835.057525   -819.186129
PC26   6828.478402 -21560.105685  16364.826564    816.568684
PC27    757.685524  27394.133519  -5316.420937    635.391136
PC28 -10967.369195  16619.283384 -19542.079719      1.672250
PC29  16449.103723   3368.666674  22286.663221    479.313384
PC30  12596.818683  22117.422321  11460.488577    487.219166
PC32   2128.014012  16918.732994  22096.024244   -959.481067
PC33 -26787.970395  -4853.126226   6153.983354   -967.526869
PC34 -12967.513054 -21473.138837 -12211.678309   -528.567501
PC35  10723.087230 -16502.617166  19770.529160     17.800322
PC36  22449.826236  -3794.359198 -16118.331142   -814.021426
PC37  -8257.346631  21543.823996 -15662.737890   -898.600708
PC38 -24247.926063  32783.751956  10382.550106    192.161002
PC39  -8173.602513  33712.369288  24067.478994     34.138269
PC40 -14690.659596  18368.546366 -35011.462208    221.045783
PC41 -17653.180573   8411.285727  19947.263751   -915.502927
PC42 -20253.077745 -15493.371612 -11314.022797   -939.199210
PC43 -16580.202184  -4101.575687 -22067.797701   -958.354578
PC44  -1541.710479 -27303.555614   5475.433920    478.004920
PC45  21400.311004 -17935.005297     30.744913    610.677605
PC46  10800.053463  11998.885587 -22758.854864    -27.988849
PE01  -3761.152751 -16159.632577  24518.534018   -524.962612
PE02   3969.835294  16110.701930 -24509.319879    262.767782
PE03  11625.051991  24847.563866  11095.997935   -499.886294
PE04 -22554.864873 -17821.817958   7052.435523   -907.580930
PE05  -6343.068710  17414.533102  23073.293683   -231.142141
PE07  20386.079707     62.803116 -21462.619569   -611.025276
PE08  22698.319873  17465.422165  -7468.645227   5898.967835
PE09 -20200.655757    119.670092  21633.665482   5450.972628
PE11 -17874.518182  10755.554886 -21005.003557   5013.475479
PE12 -12634.935572 -11777.829632 -24031.719020   4891.518252
PE13  17787.178703 -10199.243942  21358.314873    424.071427
PE14 -17813.864577   9751.616440 -24559.769658  -1653.185236
PE15  12561.919133  11811.290320  24069.070257    778.832226
PE18   6582.641990 -17107.502370  16858.239074  -1817.589544
PE19  -9600.694495 -24691.000751 -13202.834699    436.820644
PE21  16823.407010 -16094.953234  18287.560769   -701.711054
PE24 -28988.435644   5908.836384   -130.025097  -1246.416630
PE25 -17039.284776  16025.316052 -18122.756738   -554.815600
PE27  28801.806420  -6757.915367   1218.381829   -173.139143
PE30  22908.402979   7368.421013 -17253.783679    -60.051685
PE31 -23732.541226  -6500.099082  16457.980311   -488.552680
PE33     64.115626 -26795.259879 -12569.649136   -462.138188
PE36 -12526.750290  26115.017611  -6093.202241   -295.279909
PG01  13931.992856 -22145.756340   3063.028214    500.693788
PG02 -16771.390819   5641.833282 -19179.701478   -643.458897
PG03  15640.315585 -12684.212564 -17371.901465    -23.276980
PG04   5910.775841 -16842.264947 -19644.499297   -200.912058
PG05 -25594.901980   5608.709896   4653.292116    -62.320227
PG06 -10389.259547 -11169.340093 -21667.433466    126.989854
PG07   3001.823847 -23649.550518  11545.898838    283.063833
PG08  13948.876288  -6225.543694  21736.363483    -45.632970
PG09  -4851.436952 -22987.081247 -12436.054343   -361.365731
PG10  14987.339135  11940.845204  18641.803050   -254.482428
PG12 -17878.810492  10918.020170 -16500.432690   -131.744979
PG13 -16694.199879  -2467.700259  20395.069491    220.157997
PG14 -14232.769565 -12866.368160  18389.025702    -44.820076
PG15 -13353.632252   8447.513282  20964.848217   -103.734366
PG16  26714.149769   -347.440190   2011.967868   -430.374092
PG17 -12889.403055 -23205.578732    261.799303    538.936144
PG18  -3085.664388  23352.519594  12166.503963    289.762201
PG19 -16502.418168 -18918.787594  -9194.019015     84.117928
PG20 -25624.130904    479.487236  -6448.003696    517.939924
PG21  16586.331224 -16408.076682  12809.853080    152.074358
PG22  21790.448221 -10954.899387 -10088.977679   -456.007326
PG23   2269.155955  14937.893444  21826.317255     28.731147
PG24 -14705.054482  20363.635801   7682.590400    270.481466
PG25  -6105.296153  15190.805887 -21132.207823    246.337524
PG26  23514.268140   5879.016003 -11265.498054    159.005330
PG27  18311.013263   5100.796706  18524.400625   -223.680007
PG28 -20116.203080 -10528.237068  14139.318532    455.492434
PG29    -93.291230  21498.994027 -15591.985125   -445.670341
PG30  -5392.500420 -18429.966473  18317.568169   -494.420572
PG31  12631.453781   8877.120669 -21699.375818   -152.005367
PG32  16519.019009  20613.960931  -3488.486259    -26.751162
PR01 -21454.739162 -13512.508242  -2837.024630     88.608925
PR02 -19437.904570  -2626.342673  16301.763638    501.289068
PR03  -5789.772130   9312.068045  23065.806620     47.078663
PR04  10920.982230  15672.254961  16932.193060    115.977961
PR05  21565.285253  13581.656910   1394.939709     83.106553
PR07   5215.969730  -9615.538883 -23012.999067    -39.706419
PR08 -10985.422249 -15701.502702 -16772.286842    -62.213903
PR09  22647.960217  -9784.530273  -6320.838426     25.528972
PR11   1728.872424 -13020.979257  21875.010892     47.872941
PR12 -15329.277499  -2330.741233  20273.531650    281.458327
PR13 -22600.593010   9273.074028   7319.780913    -64.020662
PR14 -16706.500218  15820.557874 -11012.273543     71.401854
PR15  -1176.438196  12810.260165 -22005.335825     99.973107
PR16  16480.454873   1076.598264 -19511.162570    -25.669989
PR17  -5907.625997  21428.998046 -12457.578951    478.156260
PR18   1399.272220  25157.632612   4145.854959     98.427220
PR19   7236.603141  16625.940126  17941.223438   -168.382159
PR20  10359.868425  -4550.407494  22870.033733    -60.043184
PR21   5437.805924 -22241.375566  11284.964010   -257.459019
PR22  -1677.914486 -24888.900476  -5110.993722   -147.531048
PR24 -10664.573903   5542.093276 -22473.828828     68.510416
EOF
